{"fetched_at":"2026-03-29T16:36:15Z","count":15609,"tles":[{"name":"CATCH-1","line1":"1 60088U 24116A   26087.93346995  .00002582  00000+0  28413-3 0  9994","line2":"2 60088  28.9948 259.2471 0004162 325.1184  34.9136 14.84636548 95729","category":"Other"}]}